{
  "type": "FeatureCollection",
  "features": [
    {
      "type": "Feature",
      "properties": {
        "norad_id": 41866,
        "name": "GOES 16",
        "group": "weather",
        "lat": 0.02279346216501048,
        "lon": -155.6885021886887,
        "alt_km": 35777.53421012623,
        "timestamp": "2025-12-02T15:49:06.826210+00:00",
        "meta_object_name": "GOES 16",
        "meta_object_id": "2016-071A",
        "meta_epoch": "2025-12-02T04:43:32.090016",
        "meta_mean_motion": 1.00270609,
        "meta_eccentricity": 0.00033651,
        "meta_inclination": 0.0554,
        "meta_ra_of_asc_node": 108.4608,
        "meta_arg_of_pericenter": 147.4278,
        "meta_mean_anomaly": 141.6326,
        "meta_ephemeris_type": 0,
        "meta_classification_type": "U",
        "meta_norad_cat_id": 41866,
        "meta_element_set_no": 999,
        "meta_rev_at_epoch": 3312,
        "meta_bstar": 0,
        "meta_mean_motion_dot": -7e-07,
        "meta_mean_motion_ddot": 0,
        "tle_line1": "1 41866U 16071A   25336.19689919 -.00000070  00000+0  00000+0 0  9997",
        "tle_line2": "2 41866   0.0554 108.4608 0003365 147.4278 141.6326  1.00270609 33125"
      },
      "geometry": {
        "type": "Point",
        "coordinates": [
          -155.6885021886887,
          0.02279346216501048
        ]
      }
    },
    {
      "type": "Feature",
      "properties": {
        "norad_id": 41882,
        "name": "FENGYUN 4A",
        "group": "weather",
        "lat": -0.28720278659201276,
        "lon": 72.69753753545373,
        "alt_km": 35802.754796544745,
        "timestamp": "2025-12-02T15:49:06.826250+00:00",
        "meta_object_name": "FENGYUN 4A",
        "meta_object_id": "2016-077A",
        "meta_epoch": "2025-12-02T07:31:31.000800",
        "meta_mean_motion": 1.00278848,
        "meta_eccentricity": 0.0005003,
        "meta_inclination": 1.8205,
        "meta_ra_of_asc_node": 82.4911,
        "meta_arg_of_pericenter": 141.2194,
        "meta_mean_anomaly": 84.2874,
        "meta_ephemeris_type": 0,
        "meta_classification_type": "U",
        "meta_norad_cat_id": 41882,
        "meta_element_set_no": 999,
        "meta_rev_at_epoch": 3295,
        "meta_bstar": 0,
        "meta_mean_motion_dot": -3.36e-06,
        "meta_mean_motion_ddot": 0,
        "tle_line1": "1 41882U 16077A   25336.31355325 -.00000336  00000+0  00000+0 0  9991",
        "tle_line2": "2 41882   1.8205  82.4911 0005003 141.2194  84.2874  1.00278848 32956"
      },
      "geometry": {
        "type": "Point",
        "coordinates": [
          72.69753753545373,
          -0.28720278659201276
        ]
      }
    },
    {
      "type": "Feature",
      "properties": {
        "norad_id": 41884,
        "name": "CYGFM05",
        "group": "weather",
        "lat": -34.85594328161355,
        "lon": 27.442996794806717,
        "alt_km": 433.7571857724006,
        "timestamp": "2025-12-02T15:49:06.826265+00:00",
        "meta_object_name": "CYGFM05",
        "meta_object_id": "2016-078A",
        "meta_epoch": "2025-12-01T20:03:25.166880",
        "meta_mean_motion": 15.47023859,
        "meta_eccentricity": 0.00094077,
        "meta_inclination": 34.9578,
        "meta_ra_of_asc_node": 118.3257,
        "meta_arg_of_pericenter": 77.6657,
        "meta_mean_anomaly": 282.5117,
        "meta_ephemeris_type": 0,
        "meta_classification_type": "U",
        "meta_norad_cat_id": 41884,
        "meta_element_set_no": 999,
        "meta_rev_at_epoch": 49807,
        "meta_bstar": 0.0004358761,
        "meta_mean_motion_dot": 0.00022753,
        "meta_mean_motion_ddot": 0,
        "tle_line1": "1 41884U 16078A   25335.83570795  .00022753  00000+0  43588-3 0  9998",
        "tle_line2": "2 41884  34.9578 118.3257 0009407  77.6657 282.5117 15.47023859498076"
      },
      "geometry": {
        "type": "Point",
        "coordinates": [
          27.442996794806717,
          -34.85594328161355
        ]
      }
    },
    {
      "type": "Feature",
      "properties": {
        "norad_id": 41885,
        "name": "CYGFM04",
        "group": "weather",
        "lat": 27.92705195516326,
        "lon": 137.4301629441992,
        "alt_km": 409.52833058588203,
        "timestamp": "2025-12-02T15:49:06.826277+00:00",
        "meta_object_name": "CYGFM04",
        "meta_object_id": "2016-078B",
        "meta_epoch": "2025-12-01T17:56:12.663456",
        "meta_mean_motion": 15.49568378,
        "meta_eccentricity": 0.0008511,
        "meta_inclination": 34.9335,
        "meta_ra_of_asc_node": 93.9902,
        "meta_arg_of_pericenter": 107.3398,
        "meta_mean_anomaly": 252.8256,
        "meta_ephemeris_type": 0,
        "meta_classification_type": "U",
        "meta_norad_cat_id": 41885,
        "meta_element_set_no": 999,
        "meta_rev_at_epoch": 49823,
        "meta_bstar": 0.0011321639,
        "meta_mean_motion_dot": 0.00065033,
        "meta_mean_motion_ddot": 0,
        "tle_line1": "1 41885U 16078B   25335.74736879  .00065033  00000+0  11322-2 0  9994",
        "tle_line2": "2 41885  34.9335  93.9902 0008511 107.3398 252.8256 15.49568378498235"
      },
      "geometry": {
        "type": "Point",
        "coordinates": [
          137.4301629441992,
          27.92705195516326
        ]
      }
    },
    {
      "type": "Feature",
      "properties": {
        "norad_id": 41886,
        "name": "CYGFM02",
        "group": "weather",
        "lat": 10.448100226474063,
        "lon": 101.783447617516,
        "alt_km": 411.9111203769917,
        "timestamp": "2025-12-02T15:49:06.826304+00:00",
        "meta_object_name": "CYGFM02",
        "meta_object_id": "2016-078C",
        "meta_epoch": "2025-12-02T00:17:30.788160",
        "meta_mean_motion": 15.5101423,
        "meta_eccentricity": 0.00101286,
        "meta_inclination": 34.9428,
        "meta_ra_of_asc_node": 90.7182,
        "meta_arg_of_pericenter": 109.3865,
        "meta_mean_anomaly": 250.7953,
        "meta_ephemeris_type": 0,
        "meta_classification_type": "U",
        "meta_norad_cat_id": 41886,
        "meta_element_set_no": 999,
        "meta_rev_at_epoch": 49840,
        "meta_bstar": 0.00045957168,
        "meta_mean_motion_dot": 0.0002765,
        "meta_mean_motion_ddot": 0,
        "tle_line1": "1 41886U 16078C   25336.01216190  .00027650  00000+0  45957-3 0  9990",
        "tle_line2": "2 41886  34.9428  90.7182 0010128 109.3865 250.7953 15.51014230498408"
      },
      "geometry": {
        "type": "Point",
        "coordinates": [
          101.783447617516,
          10.448100226474063
        ]
      }
    },
    {
      "type": "Feature",
      "properties": {
        "norad_id": 41887,
        "name": "CYGFM01",
        "group": "weather",
        "lat": -30.679673376542382,
        "lon": 57.186434979281245,
        "alt_km": 430.23145731654495,
        "timestamp": "2025-12-02T15:49:06.826317+00:00",
        "meta_object_name": "CYGFM01",
        "meta_object_id": "2016-078D",
        "meta_epoch": "2025-12-02T02:09:23.270688",
        "meta_mean_motion": 15.47596984,
        "meta_eccentricity": 0.00090637,
        "meta_inclination": 34.9408,
        "meta_ra_of_asc_node": 119.091,
        "meta_arg_of_pericenter": 71.3523,
        "meta_mean_anomaly": 288.8182,
        "meta_ephemeris_type": 0,
        "meta_classification_type": "U",
        "meta_norad_cat_id": 41887,
        "meta_element_set_no": 999,
        "meta_rev_at_epoch": 49805,
        "meta_bstar": 0.00045401769,
        "meta_mean_motion_dot": 0.00024183,
        "meta_mean_motion_ddot": 0,
        "tle_line1": "1 41887U 16078D   25336.08985267  .00024183  00000+0  45402-3 0  9999",
        "tle_line2": "2 41887  34.9408 119.0910 0009063  71.3523 288.8182 15.47596984498059"
      },
      "geometry": {
        "type": "Point",
        "coordinates": [
          57.186434979281245,
          -30.679673376542382
        ]
      }
    },
    {
      "type": "Feature",
      "properties": {
        "norad_id": 41888,
        "name": "CYGFM08",
        "group": "weather",
        "lat": -29.03664812219027,
        "lon": 45.81979555757031,
        "alt_km": 428.8284897055655,
        "timestamp": "2025-12-02T15:49:06.826329+00:00",
        "meta_object_name": "CYGFM08",
        "meta_object_id": "2016-078E",
        "meta_epoch": "2025-12-01T18:24:36.538848",
        "meta_mean_motion": 15.48751854,
        "meta_eccentricity": 0.00106397,
        "meta_inclination": 34.9442,
        "meta_ra_of_asc_node": 104.3169,
        "meta_arg_of_pericenter": 94.5442,
        "meta_mean_anomaly": 265.6495,
        "meta_ephemeris_type": 0,
        "meta_classification_type": "U",
        "meta_norad_cat_id": 41888,
        "meta_element_set_no": 999,
        "meta_rev_at_epoch": 49823,
        "meta_bstar": 0.00042338756,
        "meta_mean_motion_dot": 0.00023493,
        "meta_mean_motion_ddot": 0,
        "tle_line1": "1 41888U 16078E   25335.76708957  .00023493  00000+0  42339-3 0  9992",
        "tle_line2": "2 41888  34.9442 104.3169 0010639  94.5442 265.6495 15.48751854498239"
      },
      "geometry": {
        "type": "Point",
        "coordinates": [
          45.81979555757031,
          -29.03664812219027
        ]
      }
    }
  ]
}